{"type": "FeatureCollection", "features": [{"type": "Feature", "properties": {"source": "OpenStreetMap natural=coastline", "license": "ODbL 1.0"}, "geometry": {"type": "Polygon", "coordinates": [[[122.0162, 30.5947299], [122.0162, 30.59499], [122.01649, 30.59513], [122.0167899, 30.5953801], [122.01708, 30.5956399], [122.017694, 30.5958438], [122.01797, 30.59578], [122.01798, 30.5954463], [122.0176799, 30.5952601], [122.0173555, 30.5951687], [122.0167899, 30.59487], [122.0162, 30.5947299]]]}}, {"type": "Feature", "properties": {"source": "OpenStreetMap natural=coastline", "license": "ODbL 1.0"}, "geometry": {"type": "Polygon", "coordinates": [[[122.0378374, 30.6558972], [122.0378266, 30.6558696], [122.0377958, 30.6558488], [122.0377019, 30.655813], [122.0376214, 30.6557859], [122.0375544, 30.6557709], [122.0375128, 30.655783], [122.0374779, 30.6558188], [122.0374578, 30.6558626], [122.0374645, 30.6559019], [122.0374873, 30.6559215], [122.0375273, 30.6559383], [122.0376013, 30.6559434], [122.0376751, 30.6559515], [122.0377301, 30.6559642], [122.0377716, 30.6559665], [122.0377998, 30.6559561], [122.0378226, 30.6559342], [122.0378374, 30.6558972]]]}}, {"type": "Feature", "properties": {"source": "OpenStreetMap natural=coastline", "license": "ODbL 1.0"}, "geometry": {"type": "Polygon", "coordinates": [[[122.0449721, 30.5915259], [122.0447322, 30.5919074], [122.0444601, 30.59224], [122.0444037, 30.5924031], [122.0442121, 30.5927111], [122.04431, 30.59314], [122.0445999, 30.5933999], [122.0449753, 30.5939347], [122.04519, 30.5941799], [122.045743, 30.5946873], [122.0459199, 30.5948401], [122.04652, 30.59509], [122.0471568, 30.5951154], [122.0471758, 30.5952291], [122.0477099, 30.5951], [122.0486169, 30.5946437], [122.0487883, 30.5944124], [122.0495786, 30.5939791], [122.0493864, 30.5939251], [122.0492076, 30.5935469], [122.0481908, 30.5916064], [122.0481381, 30.591977], [122.0483314, 30.5925561], [122.0480702, 30.5929758], [122.0481003, 30.5932942], [122.0478924, 30.5933987], [122.0476344, 30.5932711], [122.0470894, 30.592293], [122.0466518, 30.5919179], [122.04655, 30.5916199], [122.0462157, 30.5908036], [122.0459325, 30.5910063], [122.0455187, 30.590779], [122.0459223, 30.5899065], [122.0449158, 30.5908006], [122.0449721, 30.5915259]]]}}, {"type": "Feature", "properties": {"source": "OpenStreetMap natural=coastline", "license": "ODbL 1.0"}, "geometry": {"type": "Polygon", "coordinates": [[[121.98471, 30.59269], [121.9841199, 30.59269], [121.98426, 30.5929501], [121.98439, 30.59398], [121.9847, 30.59411], [121.9849901, 30.59424], [121.98514, 30.59398], [121.9853001, 30.5929501], [121.98471, 30.5929501], [121.98471, 30.59269]]]}}, {"type": "Feature", "properties": {"source": "OpenStreetMap natural=coastline", "license": "ODbL 1.0"}, "geometry": {"type": "Polygon", "coordinates": [[[122.0371955, 30.592144], [122.0372057, 30.5921886], [122.0372057, 30.5922059], [122.0372151, 30.5922452], [122.0372231, 30.592274], [122.0372003, 30.5922983], [122.0371842, 30.592304], [122.0371816, 30.5923352], [122.0371816, 30.5923779], [122.0371963, 30.5924091], [122.0371708, 30.5924253], [122.0371574, 30.5924414], [122.0372272, 30.5924668], [122.0372687, 30.5924968], [122.0373036, 30.5925465], [122.037372, 30.5925823], [122.0374055, 30.5925938], [122.037423, 30.5926146], [122.0374551, 30.5926388], [122.0374994, 30.5926631], [122.0375678, 30.592685], [122.0375638, 30.5927139], [122.0374846, 30.5927023], [122.0373988, 30.5927035], [122.0373733, 30.5927], [122.0373371, 30.5926908], [122.0372795, 30.5927139], [122.0372687, 30.5927462], [122.0372714, 30.5927831], [122.0372553, 30.5928005], [122.0372204, 30.5928074], [122.0371816, 30.5928247], [122.0372339, 30.5928524], [122.0373157, 30.5928813], [122.0373733, 30.5929228], [122.0373948, 30.5929321], [122.0374095, 30.5929644], [122.0374055, 30.5929771], [122.0374525, 30.5930025], [122.0375021, 30.5929898], [122.0375812, 30.5929956], [122.0376483, 30.5930117], [122.0377488, 30.5930706], [122.0377851, 30.593096], [122.0379192, 30.5931237], [122.0380063, 30.5931052], [122.0380278, 30.5930706], [122.0380573, 30.5930694], [122.0380895, 30.5930614], [122.0380922, 30.5930233], [122.0381579, 30.5929725], [122.0381847, 30.5929632], [122.0381981, 30.5929067], [122.0381606, 30.5928686], [122.0380868, 30.5928409], [122.0380211, 30.5928201], [122.0378964, 30.5927924], [122.0378762, 30.5927485], [122.0379017, 30.59273], [122.0379674, 30.5927393], [122.0379406, 30.5927162], [122.0379889, 30.5927185], [122.0380801, 30.592722], [122.0382075, 30.5927277], [122.0382719, 30.5927058], [122.0383188, 30.5926804], [122.0382652, 30.5926123], [122.0382062, 30.5926054], [122.038186, 30.5926042], [122.0381176, 30.592588], [122.038115, 30.5925696], [122.0381498, 30.5925407], [122.0381699, 30.5925142], [122.0381767, 30.5924922], [122.0382102, 30.5924841], [122.038229, 30.5924668], [122.0382142, 30.592446], [122.038182, 30.5924322], [122.0381217, 30.5924391], [122.0381042, 30.5924691], [122.0380881, 30.5924784], [122.0380332, 30.5924795], [122.0379728, 30.592453], [122.0379058, 30.5924276], [122.0378709, 30.5923964], [122.0378669, 30.5923404], [122.037838, 30.5922954], [122.037836, 30.5922821], [122.0378193, 30.5922521], [122.0377998, 30.5922382], [122.0377737, 30.5922342], [122.0377455, 30.5922446], [122.0377133, 30.5922498], [122.0376617, 30.5922238], [122.0376261, 30.5921973], [122.0375946, 30.5921574], [122.0375222, 30.5921222], [122.03748, 30.5921147], [122.0374431, 30.5921211], [122.0373908, 30.5921268], [122.0373566, 30.5921205], [122.0373418, 30.5921066], [122.0373076, 30.5920968], [122.0372674, 30.5921049], [122.0372391, 30.5921236], [122.0371955, 30.592144]]]}}, {"type": "Feature", "properties": {"source": "OpenStreetMap natural=coastline", "license": "ODbL 1.0"}, "geometry": {"type": "Polygon", "coordinates": [[[122.0634085, 30.5982717], [122.063033, 30.5984002], [122.0628299, 30.59868], [122.0631968, 30.5987631], [122.06343, 30.5986246], [122.0635695, 30.5984343], [122.0634085, 30.5982717]]]}}, {"type": "Feature", "properties": {"source": "OpenStreetMap natural=coastline", "license": "ODbL 1.0"}, "geometry": {"type": "Polygon", "coordinates": [[[122.0663889, 30.5985601], [122.0659496, 30.5984392], [122.06566, 30.59844], [122.06551, 30.59857], [122.0653851, 30.5986599], [122.0655433, 30.5988578], [122.0659074, 30.5989506], [122.0661, 30.5990899], [122.0664, 30.5990899], [122.06699, 30.5990899], [122.0674077, 30.5989237], [122.0675901, 30.5987101], [122.06699, 30.59858], [122.0663889, 30.5985601]]]}}, {"type": "Feature", "properties": {"source": "OpenStreetMap natural=coastline", "license": "ODbL 1.0"}, "geometry": {"type": "Polygon", "coordinates": [[[122.0650391, 30.5983179], [122.06432, 30.5982999], [122.0640201, 30.59843], [122.0641703, 30.5985892], [122.0645346, 30.5986816], [122.06511, 30.5986101], [122.0650391, 30.5983179]]]}}, {"type": "Feature", "properties": {"source": "OpenStreetMap natural=coastline", "license": "ODbL 1.0"}, "geometry": {"type": "Polygon", "coordinates": [[[122.1263512, 30.5871016], [122.1262697, 30.5872177], [122.1262901, 30.5873615], [122.1264083, 30.5874655], [122.1264326, 30.5876167], [122.1263535, 30.5878055], [122.1263441, 30.5880543], [122.1263752, 30.5881387], [122.1263901, 30.58832], [122.12624, 30.58845], [122.1261382, 30.5885646], [122.126101, 30.5887555], [122.1259241, 30.5889201], [122.1257104, 30.5890523], [122.1254886, 30.5890064], [122.125417, 30.5889098], [122.1252793, 30.5889612], [122.1252166, 30.5891142], [122.1249233, 30.5891795], [122.124869, 30.5890559], [122.1247652, 30.5889353], [122.1245522, 30.5889222], [122.1245092, 30.5889823], [122.1243593, 30.5889866], [122.1244606, 30.5893606], [122.1246317, 30.589683], [122.1249055, 30.5898012], [122.1251241, 30.5899209], [122.1251688, 30.5900073], [122.1250878, 30.5900373], [122.1251271, 30.5901043], [122.1252833, 30.590118], [122.1253394, 30.5902315], [122.1253708, 30.5903967], [122.1254405, 30.5906099], [122.1255268, 30.5908302], [122.1255915, 30.59092], [122.125733, 30.5908999], [122.1257886, 30.5911585], [122.1259079, 30.5912525], [122.1261925, 30.5915046], [122.1263933, 30.5919772], [122.1263167, 30.5920672], [122.1263605, 30.5921816], [122.1265199, 30.5921799], [122.12681, 30.59231], [122.1270999, 30.59257], [122.1275166, 30.5928621], [122.1278608, 30.5929909], [122.1282452, 30.5929379], [122.1284293, 30.5929988], [122.1285623, 30.5930304], [122.1286153, 30.5931655], [122.1287519, 30.593181], [122.1287379, 30.5932612], [122.1287706, 30.5933763], [122.128901, 30.5934807], [122.1293083, 30.5935249], [122.129391, 30.5935853], [122.1294508, 30.5935662], [122.1294313, 30.5933913], [122.1295541, 30.5933914], [122.1296551, 30.5932436], [122.1297655, 30.5931761], [122.1298321, 30.5933206], [122.1300027, 30.5932838], [122.1300311, 30.5930617], [122.1301532, 30.5928907], [122.1303837, 30.5928419], [122.1304961, 30.5926085], [122.130655, 30.5926367], [122.1308595, 30.5927665], [122.131054, 30.5926843], [122.1310781, 30.5924646], [122.1313003, 30.5924326], [122.1311202, 30.5922805], [122.1314767, 30.5923041], [122.1316828, 30.5920722], [122.1315368, 30.5920228], [122.1315665, 30.5919149], [122.131669, 30.5918977], [122.1316701, 30.5917708], [122.1314203, 30.5917527], [122.131516, 30.5915824], [122.1316841, 30.5915852], [122.1317204, 30.5914145], [122.1316642, 30.5913718], [122.1316859, 30.5912834], [122.1318421, 30.5912532], [122.1319343, 30.5912975], [122.1320141, 30.5912725], [122.1320044, 30.5911609], [122.1321009, 30.5911195], [122.1321369, 30.5908378], [122.1312594, 30.5910687], [122.1308888, 30.5910763], [122.130611, 30.5909459], [122.1304207, 30.5908518], [122.1303396, 30.5906135], [122.1302749, 30.590356], [122.1302412, 30.5901888], [122.1302827, 30.5898969], [122.1302669, 30.5896115], [122.1300795, 30.5895477], [122.1302097, 30.5894003], [122.1305002, 30.5894624], [122.1305697, 30.5892259], [122.1307887, 30.5892941], [122.1306906, 30.588937], [122.1304001, 30.58887], [122.1303141, 30.5886844], [122.1301682, 30.5885021], [122.1298882, 30.5883545], [122.1296099, 30.588214], [122.1292932, 30.5880665], [122.1287045, 30.5880467], [122.1281889, 30.5881206], [122.1281666, 30.5882322], [122.1280463, 30.5882322], [122.1280248, 30.5880317], [122.1280166, 30.5878634], [122.1279478, 30.5877433], [122.1278148, 30.5877766], [122.1277683, 30.5875576], [122.1279421, 30.5875359], [122.1279046, 30.5874023], [122.127669, 30.5873366], [122.1275561, 30.5871903], [122.1272868, 30.5871052], [122.1270106, 30.5871244], [122.1267988, 30.587102], [122.1265977, 30.5870388], [122.1263512, 30.5871016]]]}}, {"type": "Feature", "properties": {"source": "OpenStreetMap natural=coastline", "license": "ODbL 1.0"}, "geometry": {"type": "Polygon", "coordinates": [[[122.0382383, 30.6562999], [122.038127, 30.6562676], [122.038072, 30.6562549], [122.0380358, 30.6562526], [122.0379976, 30.6562768], [122.0379621, 30.6563172], [122.0379004, 30.6563991], [122.0378568, 30.6564648], [122.0378387, 30.6564954], [122.0378387, 30.656511], [122.0378461, 30.6565248], [122.0378749, 30.6565531], [122.0379151, 30.6565871], [122.0379366, 30.6566131], [122.0379601, 30.6566471], [122.0379809, 30.6566737], [122.0380057, 30.6566864], [122.0380312, 30.6566916], [122.0380566, 30.6566852], [122.0380754, 30.6566662], [122.0381009, 30.656646], [122.0381297, 30.6566396], [122.0381793, 30.6566425], [122.0382316, 30.6566408], [122.0382571, 30.6566425], [122.0382792, 30.6566344], [122.0382873, 30.6566183], [122.038288, 30.656596], [122.0382826, 30.6565808], [122.0382504, 30.6565571], [122.0381995, 30.6565156], [122.0381639, 30.6564827], [122.0381505, 30.6564689], [122.0381478, 30.6564574], [122.0381559, 30.6564447], [122.0381767, 30.6564424], [122.0382135, 30.656447], [122.0382585, 30.6564585], [122.03829, 30.6564648], [122.0383295, 30.6564723], [122.038359, 30.6564672], [122.0383818, 30.6564545], [122.0383979, 30.6564302], [122.0383979, 30.6564037], [122.0383792, 30.6563829], [122.0383403, 30.6563529], [122.0383014, 30.6563253], [122.0382383, 30.6562999]]]}}, {"type": "Feature", "properties": {"source": "OpenStreetMap natural=coastline", "license": "ODbL 1.0"}, "geometry": {"type": "Polygon", "coordinates": [[[122.0374142, 30.656267], [122.0373613, 30.6562705], [122.0373425, 30.6562797], [122.0373318, 30.656293], [122.0373284, 30.6563085], [122.0373391, 30.6563258], [122.0373566, 30.6563426], [122.0374162, 30.6563674], [122.0374618, 30.6563783], [122.0375155, 30.6563835], [122.0375725, 30.6563904], [122.0376496, 30.6563939], [122.0376892, 30.656391], [122.037724, 30.6563858], [122.0377576, 30.6563852], [122.0378286, 30.6563841], [122.0378548, 30.6563841], [122.0378756, 30.6563783], [122.0379084, 30.656361], [122.0379259, 30.6563403], [122.0379366, 30.6563201], [122.0379366, 30.6562941], [122.0379346, 30.656263], [122.0379292, 30.656237], [122.0379245, 30.656211], [122.0379172, 30.6561903], [122.0379051, 30.6561822], [122.037887, 30.6561805], [122.0378635, 30.6561782], [122.0378219, 30.6561839], [122.0377904, 30.6561987], [122.0377582, 30.6562318], [122.0377354, 30.6562566], [122.0377059, 30.656271], [122.0376657, 30.6562768], [122.037604, 30.656278], [122.0375568, 30.6562776], [122.0374766, 30.6562693], [122.0374142, 30.656267]]]}}, {"type": "Feature", "properties": {"source": "OpenStreetMap natural=coastline", "license": "ODbL 1.0"}, "geometry": {"type": "Polygon", "coordinates": [[[122.0201001, 30.5914199], [122.0202399, 30.5919401], [122.02039, 30.5921899], [122.0197899, 30.59232], [122.01964, 30.59245], [122.01964, 30.5927], [122.01964, 30.5929599], [122.0193301, 30.5937299], [122.01918, 30.5938599], [122.0190299, 30.59398], [122.0190299, 30.59424], [122.0190199, 30.5945001], [122.0190199, 30.5947499], [122.0193201, 30.59501], [122.01961, 30.5952601], [122.01976, 30.59579], [122.02005, 30.59592], [122.0203499, 30.5961799], [122.02095, 30.59644], [122.0212301, 30.5967], [122.02152, 30.5969599], [122.0218099, 30.59722], [122.0230101, 30.59748], [122.0236, 30.5976201], [122.02375, 30.5971], [122.02406, 30.59659], [122.02421, 30.59634], [122.02361, 30.59633], [122.02362, 30.5960799], [122.02332, 30.5960699], [122.02332, 30.5958201], [122.02362, 30.59569], [122.0239199, 30.59543], [122.02452, 30.59544], [122.0251101, 30.5957101], [122.0256999, 30.5959599], [122.0268901, 30.59623], [122.02718, 30.5964901], [122.0274799, 30.5964901], [122.02807, 30.5964901], [122.02985, 30.5966399], [122.02986, 30.59612], [122.03016, 30.59599], [122.03075, 30.59587], [122.03061, 30.5956101], [122.0304699, 30.59458], [122.02988, 30.59445], [122.02973, 30.59432], [122.0295799, 30.5941899], [122.0286899, 30.5940601], [122.02884, 30.5943099], [122.02898, 30.5948401], [122.02839, 30.5947], [122.0282399, 30.59457], [122.02809, 30.59444], [122.02749, 30.5942999], [122.0273599, 30.59379], [122.0272, 30.59366], [122.02707, 30.5935299], [122.0269199, 30.5933999], [122.02676, 30.5932701], [122.02663, 30.59314], [122.02543, 30.59313], [122.02528, 30.5932601], [122.0251299, 30.5933901], [122.02364, 30.5936299], [122.02305, 30.5936299], [122.0229001, 30.5935001], [122.02275, 30.5933801], [122.0226, 30.59324], [122.02232, 30.59247], [122.02217, 30.59234], [122.02128, 30.5920699], [122.0206899, 30.59181], [122.02054, 30.59168], [122.02039, 30.59155], [122.0201001, 30.5914199]]]}}, {"type": "Feature", "properties": {"source": "OpenStreetMap natural=coastline", "license": "ODbL 1.0"}, "geometry": {"type": "Polygon", "coordinates": [[[122.0974099, 30.5885099], [122.0968201, 30.5885001], [122.09667, 30.5886299], [122.0965099, 30.58876], [122.09636, 30.58889], [122.09623, 30.589], [122.0956199, 30.589], [122.09503, 30.589], [122.09488, 30.58913], [122.0947299, 30.5892601], [122.09413, 30.5893801], [122.0942799, 30.5896399], [122.0942799, 30.5899], [122.0939699, 30.5904099], [122.0938201, 30.59054], [122.09367, 30.59067], [122.09367, 30.5911799], [122.09366, 30.5919501], [122.0935099, 30.5920799], [122.09336, 30.5922], [122.09321, 30.59234], [122.0930599, 30.59246], [122.0931697, 30.5927219], [122.0928239, 30.5929143], [122.0929081, 30.593154], [122.0932, 30.59336], [122.09409, 30.5936299], [122.0952799, 30.59376], [122.0952899, 30.59325], [122.09499, 30.59325], [122.0949678, 30.5930481], [122.0947001, 30.59247], [122.0948499, 30.59222], [122.0951601, 30.5912], [122.0952351, 30.59081], [122.0960495, 30.5904837], [122.0964247, 30.5904568], [122.0968616, 30.5900056], [122.0969599, 30.5893999], [122.0973688, 30.5892401], [122.0977001, 30.5889], [122.09756, 30.5886399], [122.0974099, 30.5885099]]]}}, {"type": "Feature", "properties": {"source": "OpenStreetMap natural=coastline", "license": "ODbL 1.0"}, "geometry": {"type": "Polygon", "coordinates": [[[121.9784399, 30.59521], [121.97785, 30.59534], [121.9775599, 30.59546], [121.9775401, 30.59624], [121.97813, 30.59624], [121.97829, 30.59598], [121.9784399, 30.59521]]]}}, {"type": "Feature", "properties": {"source": "OpenStreetMap natural=coastline", "license": "ODbL 1.0"}, "geometry": {"type": "Polygon", "coordinates": [[[122.0506794, 30.6459377], [122.050594, 30.6459668], [122.0505888, 30.6460818], [122.0504263, 30.6460773], [122.0504252, 30.6461724], [122.0504394, 30.6462177], [122.0503859, 30.6462189], [122.0503536, 30.6460848], [122.05018, 30.64616], [122.0502209, 30.6461976], [122.0502045, 30.6462519], [122.0501686, 30.6462713], [122.0501355, 30.6462733], [122.0501344, 30.6463207], [122.0501868, 30.6463356], [122.0502129, 30.6463601], [122.0501911, 30.6464008], [122.0501054, 30.6464249], [122.0500916, 30.6464739], [122.0502248, 30.6464773], [122.0501692, 30.6465245], [122.050168, 30.6465632], [122.0502628, 30.6465517], [122.0502777, 30.6466222], [122.0503969, 30.646611], [122.0504172, 30.6467254], [122.0504668, 30.6467277], [122.0505181, 30.64661], [122.0505164, 30.64673], [122.0506155, 30.6467346], [122.0506723, 30.6466323], [122.0507281, 30.6467399], [122.0507886, 30.6466953], [122.0507237, 30.6466153], [122.0508096, 30.6465425], [122.0508049, 30.646403], [122.0507, 30.646295], [122.0507482, 30.6462473], [122.0507779, 30.6462408], [122.0508017, 30.6462712], [122.0508667, 30.6462391], [122.0508362, 30.6460876], [122.0507804, 30.6460829], [122.0508002, 30.6459776], [122.0506794, 30.6459377]]]}}, {"type": "Feature", "properties": {"source": "OpenStreetMap natural=coastline", "license": "ODbL 1.0"}, "geometry": {"type": "Polygon", "coordinates": [[[121.98769, 30.5922], [121.9870901, 30.5922], [121.9870901, 30.5927101], [121.98738, 30.5928399], [121.9879801, 30.5929699], [121.9879801, 30.59246], [121.98769, 30.59246], [121.98769, 30.5922]]]}}, {"type": "Feature", "properties": {"source": "OpenStreetMap natural=coastline", "license": "ODbL 1.0"}, "geometry": {"type": "Polygon", "coordinates": [[[121.97902, 30.5965001], [121.9784201, 30.5965001], [121.9784201, 30.59702], [121.97902, 30.59702], [121.97902, 30.5965001]]]}}, {"type": "Feature", "properties": {"source": "OpenStreetMap natural=coastline", "license": "ODbL 1.0"}, "geometry": {"type": "Polygon", "coordinates": [[[121.96924, 30.59424], [121.96894, 30.59424], [121.96879, 30.5943701], [121.96849, 30.59488], [121.9683399, 30.59501], [121.9681901, 30.59513], [121.96804, 30.5952601], [121.9678899, 30.5953901], [121.96758, 30.5959], [121.9674299, 30.59603], [121.96714, 30.5961501], [121.96713, 30.59692], [121.96802, 30.5968], [121.9683199, 30.59655], [121.96892, 30.5964199], [121.9690701, 30.59565], [121.96938, 30.59514], [121.96968, 30.59489], [121.96968, 30.5946299], [121.9695301, 30.5945001], [121.96938, 30.5943701], [121.96924, 30.59424]]]}}, {"type": "Feature", "properties": {"source": "OpenStreetMap natural=coastline", "license": "ODbL 1.0"}, "geometry": {"type": "Polygon", "coordinates": [[[122.0345127, 30.58756], [122.0342875, 30.5875176], [122.0342016, 30.5876585], [122.0339977, 30.5876754], [122.0338905, 30.5877324], [122.033926, 30.587889], [122.0340541, 30.5880118], [122.0343707, 30.5879913], [122.0344001, 30.5878686], [122.0345095, 30.5878216], [122.0345019, 30.5876299], [122.0345127, 30.58756]]]}}, {"type": "Feature", "properties": {"source": "OpenStreetMap natural=coastline", "license": "ODbL 1.0"}, "geometry": {"type": "Polygon", "coordinates": [[[121.99486, 30.58891], [121.99485, 30.58943], [121.99425, 30.58955], [121.9936601, 30.5898], [121.99351, 30.5899301], [121.9933499, 30.59044], [121.9909801, 30.5902999], [121.9906799, 30.5902899], [121.9905301, 30.59042], [121.9902299, 30.5909301], [121.99007, 30.5910601], [121.98994, 30.5912], [121.98962, 30.5917], [121.98948, 30.5918301], [121.9893201, 30.5919599], [121.98917, 30.5927299], [121.9897601, 30.5928599], [121.99006, 30.59312], [121.9903499, 30.59312], [121.99094, 30.593], [121.9911001, 30.5927399], [121.9914, 30.5924901], [121.9917, 30.5919699], [121.9918601, 30.59146], [121.99216, 30.59133], [121.9927501, 30.59121], [121.9928999, 30.59147], [121.99319, 30.5917299], [121.9933399, 30.59224], [121.99393, 30.5923801], [121.9942199, 30.5926399], [121.99452, 30.5929], [121.9951099, 30.59303], [121.9951199, 30.5922601], [121.99482, 30.5922601], [121.99482, 30.592], [121.9951199, 30.592], [121.9949901, 30.5907101], [121.9949901, 30.59047], [121.99529, 30.5902], [121.99559, 30.5899499], [121.9957601, 30.5891799], [121.99515, 30.5890401], [121.99486, 30.58891]]]}}, {"type": "Feature", "properties": {"source": "OpenStreetMap natural=coastline", "license": "ODbL 1.0"}, "geometry": {"type": "Polygon", "coordinates": [[[122.018199, 30.5874557], [122.0180372, 30.5874522], [122.0179152, 30.5874911], [122.0178254, 30.5875834], [122.0176765, 30.5876192], [122.0175773, 30.58758], [122.0174432, 30.5876008], [122.0173942, 30.5876362], [122.0173909, 30.5876925], [122.0174629, 30.5877039], [122.0175035, 30.5877081], [122.0175089, 30.5877578], [122.0174713, 30.587804], [122.0174459, 30.5877953], [122.0174311, 30.5877439], [122.0173654, 30.5877358], [122.0173158, 30.5878132], [122.0172675, 30.5881295], [122.0171978, 30.5884551], [122.0172085, 30.5885636], [122.0173471, 30.588702], [122.017527, 30.5888814], [122.0176497, 30.5890046], [122.0177785, 30.589157], [122.0178455, 30.5892586], [122.0179649, 30.5893516], [122.0181406, 30.5894225], [122.0183301, 30.5894801], [122.0186046, 30.5896096], [122.0187105, 30.5896937], [122.0188835, 30.5897065], [122.0190874, 30.5896419], [122.0192228, 30.5896891], [122.0193744, 30.5896303], [122.0195165, 30.5894803], [122.0198196, 30.5892355], [122.0199974, 30.5892736], [122.0201763, 30.5891224], [122.0201763, 30.5890808], [122.0199314, 30.5888441], [122.0197017, 30.5885855], [122.0194066, 30.588499], [122.0192215, 30.5883327], [122.0192081, 30.5882461], [122.0192537, 30.5882346], [122.019251, 30.5881942], [122.0191705, 30.5881618], [122.0191511, 30.5881188], [122.019141, 30.5879771], [122.0189533, 30.587834], [122.0185964, 30.5875077], [122.0185161, 30.5874784], [122.0184235, 30.5874668], [122.0183793, 30.5874207], [122.0182693, 30.5874273], [122.0182747, 30.5874634], [122.018199, 30.5874557]]]}}, {"type": "Feature", "properties": {"source": "OpenStreetMap natural=coastline", "license": "ODbL 1.0"}, "geometry": {"type": "Polygon", "coordinates": [[[122.0420661, 30.6438626], [122.0424333, 30.643874], [122.0427168, 30.6434263], [122.0428973, 30.6433232], [122.0433934, 30.6432271], [122.0435521, 30.6430826], [122.0435747, 30.6428641], [122.0437107, 30.6426039], [122.0437438, 30.6414092], [122.0446076, 30.6408293], [122.0451691, 30.6412278], [122.0464718, 30.6418627], [122.0465463, 30.6422092], [122.0469951, 30.6428214], [122.047295, 30.6429845], [122.0476031, 30.643152], [122.0482391, 30.6435249], [122.0489601, 30.6442109], [122.0498908, 30.6447988], [122.0503122, 30.6446353], [122.0506927, 30.6440578], [122.0512036, 30.6437146], [122.0519472, 30.6436114], [122.0531369, 30.6431212], [122.053295, 30.6429992], [122.0563486, 30.6459286], [122.0561905, 30.6460506], [122.0563879, 30.6465938], [122.0566668, 30.6467217], [122.0566777, 30.6470361], [122.0568771, 30.6471462], [122.0570906, 30.6473238], [122.057192, 30.6473285], [122.0573599, 30.6476354], [122.0576067, 30.647663], [122.0576281, 30.6475108], [122.0574297, 30.6473492], [122.0578642, 30.64728], [122.0580976, 30.6471123], [122.0583845, 30.6471], [122.0587332, 30.6474], [122.058951, 30.6475478], [122.0592857, 30.6478338], [122.05967, 30.6477699], [122.0597954, 30.6475384], [122.0597977, 30.6474677], [122.0597806, 30.6474156], [122.0596519, 30.647374], [122.0596666, 30.647224], [122.0598866, 30.6472246], [122.05999, 30.6467501], [122.0603463, 30.6467276], [122.0608617, 30.6467114], [122.0612505, 30.6468987], [122.0614701, 30.6468899], [122.0617267, 30.6469577], [122.0619854, 30.6468894], [122.0621424, 30.6465669], [122.0623701, 30.64637], [122.06297, 30.64612], [122.0631763, 30.6458972], [122.0635272, 30.6458753], [122.06342, 30.64523], [122.0631301, 30.6444499], [122.06299, 30.6443199], [122.0623899, 30.64406], [122.0622501, 30.64393], [122.0621, 30.6434201], [122.0624, 30.6435499], [122.06299, 30.64381], [122.06418, 30.64395], [122.0641699, 30.64446], [122.0644701, 30.64459], [122.06478, 30.6448501], [122.06507, 30.6448501], [122.0653501, 30.6448601], [122.06566, 30.64512], [122.0662501, 30.64538], [122.0668399, 30.64551], [122.06699, 30.6457699], [122.0671301, 30.64628], [122.0677299, 30.6464201], [122.06921, 30.6465599], [122.06921, 30.6470701], [122.0701, 30.6472001], [122.0703899, 30.6472099], [122.07099, 30.6470801], [122.07099, 30.64683], [122.0701, 30.64682], [122.07011, 30.6463101], [122.0695099, 30.64617], [122.0689201, 30.64617], [122.0686199, 30.6462901], [122.0684801, 30.6455201], [122.06833, 30.64539], [122.06818, 30.64526], [122.0680301, 30.64513], [122.06789, 30.6449999], [122.06789, 30.6447501], [122.06789, 30.64423], [122.06775, 30.6439701], [122.06834, 30.6439801], [122.0683501, 30.64372], [122.06775, 30.64359], [122.0671599, 30.6433299], [122.06701, 30.6432001], [122.066917, 30.643131], [122.0668082, 30.6428261], [122.0664785, 30.6426382], [122.0660181, 30.6426009], [122.0656021, 30.6425689], [122.0653189, 30.6422879], [122.0650727, 30.6420353], [122.0646852, 30.6421609], [122.064404, 30.6420388], [122.0640588, 30.6420108], [122.0640578, 30.6421245], [122.063856, 30.6421347], [122.0637167, 30.6418994], [122.0634447, 30.6416556], [122.0630845, 30.6415375], [122.0628987, 30.6413954], [122.0625623, 30.641367], [122.0623603, 30.6407332], [122.0626818, 30.6409291], [122.0634168, 30.6413767], [122.064182, 30.6416258], [122.0647647, 30.6416494], [122.0651574, 30.641728], [122.0656719, 30.6420428], [122.0661864, 30.6423576], [122.0664468, 30.6423721], [122.0681798, 30.6417083], [122.0684427, 30.6416967], [122.0687029, 30.6417406], [122.0689583, 30.6418397], [122.0692159, 30.6419902], [122.0693658, 30.6421462], [122.0695113, 30.642366], [122.0689238, 30.6425374], [122.0687614, 30.6425605], [122.0686465, 30.6426345], [122.0685475, 30.6427552], [122.0685384, 30.6428355], [122.0686438, 30.6430456], [122.0687215, 30.6430851], [122.0688313, 30.64308], [122.0691483, 30.6429523], [122.0691565, 30.6428844], [122.0693126, 30.6428526], [122.0694527, 30.6427852], [122.0695509, 30.6426822], [122.0704809, 30.6422734], [122.0709801, 30.6420867], [122.0711169, 30.6420844], [122.0712818, 30.6420371], [122.0714602, 30.6419252], [122.0722568, 30.6417013], [122.0727798, 30.6415929], [122.0729662, 30.6415652], [122.0731084, 30.6415744], [122.0732412, 30.6415617], [122.0733592, 30.6415202], [122.0734195, 30.6414798], [122.0739506, 30.641414], [122.074475, 30.6413598], [122.0750061, 30.6413379], [122.0751469, 30.641376], [122.0753078, 30.641376], [122.0754594, 30.6413413], [122.0761406, 30.6413621], [122.0766851, 30.6413898], [122.077471, 30.6415075], [122.0784956, 30.6416967], [122.0790133, 30.6418213], [122.0791072, 30.6418213], [122.0797831, 30.6415929], [122.0798662, 30.6415975], [122.0799869, 30.6417544], [122.0798448, 30.6418121], [122.0798984, 30.6419275], [122.0828193, 30.6409052], [122.0844062, 30.6442953], [122.104644, 30.6370317], [122.1044306, 30.6365916], [122.1035263, 30.6369162], [122.0987336, 30.6270652], [122.1015015, 30.625173], [122.1036521, 30.624238], [122.1045701, 30.6238239], [122.1049583, 30.623428], [122.10512, 30.62302], [122.1057101, 30.6229], [122.1057201, 30.62238], [122.1054199, 30.62238], [122.1054199, 30.62212], [122.10513, 30.62212], [122.1052801, 30.6218599], [122.1052801, 30.62135], [122.10514, 30.6208301], [122.1046211, 30.620737], [122.1046533, 30.6194817], [122.1048312, 30.6186243], [122.1047417, 30.6178428], [122.1044838, 30.6172691], [122.1044342, 30.6170061], [122.1043901, 30.6167725], [122.1037721, 30.6163539], [122.1042624, 30.616537], [122.1045339, 30.6167396], [122.1048439, 30.6171868], [122.1047873, 30.617459], [122.1049421, 30.6179395], [122.1051093, 30.6181695], [122.1052812, 30.6183891], [122.105495, 30.6186561], [122.1057412, 30.6189389], [122.1058098, 30.6190883], [122.1058162, 30.6192347], [122.1056137, 30.6196763], [122.1055041, 30.6202391], [122.1056023, 30.620718], [122.105807, 30.6211805], [122.1062182, 30.6216347], [122.1070021, 30.6226669], [122.1106965, 30.6224523], [122.1108515, 30.6224075], [122.1109847, 30.6223381], [122.111083, 30.6221165], [122.1110144, 30.6218203], [122.1089048, 30.6147016], [122.1093671, 30.6145594], [122.1114336, 30.6221018], [122.1115434, 30.6222661], [122.1117612, 30.6223932], [122.1119926, 30.6224304], [122.1208595, 30.6210059], [122.1253651, 30.6196766], [122.1258128, 30.6192491], [122.131384, 30.6172588], [122.1317447, 30.6166166], [122.1319568, 30.6154984], [122.1314816, 30.6140269], [122.1305745, 30.6132424], [122.1306603, 30.6131228], [122.133523, 30.6146082], [122.13403, 30.61512], [122.13344, 30.61511], [122.1332801, 30.61588], [122.13313, 30.61601], [122.1329799, 30.61614], [122.13268, 30.6166499], [122.1325299, 30.61678], [122.13238, 30.6169], [122.13223, 30.6174199], [122.1325201, 30.6175399], [122.1334199, 30.6175399], [122.13401, 30.6172999], [122.1343099, 30.6170501], [122.13669, 30.61693], [122.1368401, 30.6171899], [122.13713, 30.61745], [122.13727, 30.61848], [122.13757, 30.6186101], [122.1378599, 30.6188699], [122.1383428, 30.6188699], [122.13846, 30.6188699], [122.13935, 30.6188799], [122.1405399, 30.61914], [122.14113, 30.6194101], [122.14172, 30.61967], [122.1423199, 30.6198], [122.14246, 30.6203199], [122.1427599, 30.62057], [122.142839, 30.6211514], [122.1423982, 30.6212784], [122.1429, 30.6216], [122.1431901, 30.6216101], [122.14366, 30.6212787], [122.1448125, 30.6212978], [122.14528, 30.6210999], [122.1466139, 30.6200923], [122.1466261, 30.6199127], [122.1465907, 30.6197712], [122.1464245, 30.6196932], [122.1462556, 30.6197187], [122.1462591, 30.6196234], [122.146401, 30.6195557], [122.1461608, 30.6189167], [122.1460479, 30.6188509], [122.1457608, 30.619059], [122.1449962, 30.6188133], [122.1440793, 30.618363], [122.1439701, 30.61801], [122.14382, 30.6178799], [122.14323, 30.6176201], [122.1426399, 30.61736], [122.14249, 30.61723], [122.14234, 30.6170999], [122.1420969, 30.6167872], [122.1419, 30.61671], [122.1419, 30.61645], [122.1417501, 30.6163199], [122.1417475, 30.6157879], [122.1417488, 30.6154016], [122.141831, 30.6151537], [122.1419168, 30.615044], [122.1424025, 30.6149587], [122.1428413, 30.6148143], [122.1430209, 30.6144223], [122.1432643, 30.6142833], [122.1432624, 30.6140885], [122.1431591, 30.6137863], [122.1430936, 30.6136996], [122.1427418, 30.6137006], [122.1428449, 30.613898], [122.1424567, 30.6139115], [122.1421341, 30.6137852], [122.142071, 30.6136286], [122.1417617, 30.6134303], [122.1411988, 30.6135702], [122.1402964, 30.6133635], [122.1398118, 30.613786], [122.1393963, 30.6138462], [122.1385175, 30.6135234], [122.1380376, 30.6135028], [122.1368811, 30.6139901], [122.1348642, 30.6140076], [122.1340276, 30.6141579], [122.1337684, 30.614173], [122.1330826, 30.6140559], [122.1333161, 30.6138645], [122.1343512, 30.6138107], [122.1347465, 30.6138455], [122.135322, 30.6137094], [122.1357835, 30.6137838], [122.1364601, 30.613836], [122.137098, 30.6137252], [122.1375926, 30.6134547], [122.1376809, 30.6132664], [122.1375467, 30.6129072], [122.1376147, 30.6127663], [122.1390378, 30.6124072], [122.1392621, 30.6124847], [122.1394367, 30.6130227], [122.1396335, 30.6132047], [122.1419262, 30.6133392], [122.1426579, 30.6134657], [122.1433161, 30.6133993], [122.1432499, 30.6137949], [122.1433205, 30.6140843], [122.1435353, 30.6141608], [122.1436733, 30.6141114], [122.14415, 30.61415], [122.1443638, 30.6141132], [122.1445089, 30.6140898], [122.1445036, 30.6138222], [122.1443001, 30.6136399], [122.1442662, 30.6134979], [122.1442025, 30.6132681], [122.1438486, 30.6131893], [122.143593, 30.6132077], [122.1428104, 30.613216], [122.1408262, 30.6114755], [122.1401304, 30.6111207], [122.1298645, 30.6115416], [122.1298832, 30.6107824], [122.1296054, 30.6100507], [122.1292169, 30.6095692], [122.1290244, 30.6090772], [122.1291686, 30.6081907], [122.129967, 30.6058602], [122.130311, 30.6052982], [122.1306431, 30.6049512], [122.1309306, 30.604673], [122.1310534, 30.6043339], [122.1310294, 30.6040324], [122.1308924, 30.6037413], [122.1307005, 30.6030206], [122.1303374, 30.6017099], [122.1303163, 30.6013596], [122.1299806, 30.6010266], [122.1294939, 30.5999522], [122.1292876, 30.5993427], [122.129117, 30.5990685], [122.1285715, 30.5986721], [122.1282291, 30.598657], [122.1273032, 30.5989763], [122.1267394, 30.5990486], [122.1258611, 30.5996918], [122.1248165, 30.599756], [122.1234731, 30.5997612], [122.1215914, 30.5998077], [122.1207134, 30.5998126], [122.1206276, 30.5998414], [122.1202843, 30.5993693], [122.1202387, 30.5992896], [122.1202176, 30.599218], [122.1201834, 30.59816], [122.1203226, 30.5981567], [122.1203143, 30.5979015], [122.1201712, 30.597905], [122.1201469, 30.5971552], [122.1209708, 30.5971355], [122.1209732, 30.5972104], [122.1231686, 30.5971577], [122.1231593, 30.5968692], [122.1209678, 30.5969217], [122.1209712, 30.5970283], [122.1201402, 30.5970482], [122.1201387, 30.5970018], [122.1200048, 30.597005], [122.1200751, 30.599176], [122.1192196, 30.5992818], [122.1192094, 30.5992207], [122.1187315, 30.5992798], [122.1187439, 30.5993544], [122.1177741, 30.5994743], [122.117761, 30.5993957], [122.1173115, 30.5994512], [122.1173421, 30.5996349], [122.1200982, 30.5992956], [122.1201287, 30.5993623], [122.1201663, 30.5994177], [122.120515, 30.5999049], [122.1203996, 30.5999834], [122.1203111, 30.6000769], [122.1202587, 30.6001684], [122.1201181, 30.6006634], [122.1146855, 30.6013281], [122.1116996, 30.6016544], [122.1113853, 30.6016664], [122.111358, 30.6013775], [122.1114495, 30.6012761], [122.1112769, 30.6011405], [122.1111599, 30.601138], [122.1111097, 30.6012563], [122.1111473, 30.6016477], [122.1107928, 30.6017006], [122.1074119, 30.6016008], [122.1072621, 30.6012603], [122.1068657, 30.6013784], [122.1042571, 30.6020443], [122.0988402, 30.6037069], [122.0984668, 30.6039772], [122.0982881, 30.6042434], [122.0982225, 30.6045318], [122.0983387, 30.6048767], [122.099256, 30.6074894], [122.0994179, 30.6077196], [122.0996668, 30.6078787], [122.0999498, 30.6079443], [122.1002659, 30.6079121], [122.1011568, 30.6076874], [122.1055995, 30.6065621], [122.1073687, 30.6116701], [122.1076982, 30.6127848], [122.1076798, 30.6132535], [122.1074755, 30.6137752], [122.1071585, 30.6141286], [122.1031758, 30.6152234], [122.1029381, 30.61516], [122.1023688, 30.6146014], [122.0977858, 30.6132135], [122.0966976, 30.6127957], [122.095751, 30.6117124], [122.0949096, 30.6106889], [122.0950214, 30.6101067], [122.0951629, 30.610143], [122.0958764, 30.6073254], [122.0957445, 30.6069511], [122.0936959, 30.6044494], [122.0928539, 30.6037913], [122.0920412, 30.6035583], [122.0913812, 30.6037443], [122.0906454, 30.6041169], [122.0899076, 30.6042001], [122.0891791, 30.604679], [122.0887755, 30.6049889], [122.088433, 30.6046406], [122.0817615, 30.608881], [122.0738508, 30.6138535], [122.0706641, 30.6158194], [122.0661363, 30.6186884], [122.0640413, 30.6202411], [122.0488412, 30.6312669], [122.0422599, 30.6360516], [122.042211, 30.6360871], [122.0423362, 30.6362449], [122.0420054, 30.6364727], [122.0423317, 30.6368127], [122.0424643, 30.6368186], [122.043438, 30.6378532], [122.0418745, 30.6389937], [122.0417574, 30.6391419], [122.0416374, 30.6395669], [122.0390616, 30.6415357], [122.0384679, 30.6417845], [122.0379398, 30.6420628], [122.0374727, 30.6424913], [122.0372787, 30.6428185], [122.0377179, 30.6431029], [122.0380125, 30.6431318], [122.0385636, 30.6431916], [122.0392018, 30.6433129], [122.0396648, 30.643266], [122.0400468, 30.6433306], [122.0411832, 30.6432649], [122.0414329, 30.6433561], [122.0416373, 30.6435837], [122.0420661, 30.6438626]]]}}, {"type": "Feature", "properties": {"source": "OpenStreetMap natural=coastline", "license": "ODbL 1.0"}, "geometry": {"type": "Polygon", "coordinates": [[[122.1500211, 30.58159], [122.1500573, 30.5813239], [122.1499218, 30.5812979], [122.149726, 30.5814353], [122.1495007, 30.58147], [122.1495168, 30.5815623], [122.149427, 30.5817158], [122.149262, 30.5817445], [122.1491769, 30.5817963], [122.1490865, 30.5819357], [122.1490237, 30.5818291], [122.1489225, 30.5819166], [122.1489018, 30.5820133], [122.1487585, 30.5820544], [122.1486983, 30.5821887], [122.1485738, 30.5822399], [122.1485511, 30.5822881], [122.1486088, 30.5823595], [122.1485579, 30.5824422], [122.1485018, 30.5825914], [122.1483922, 30.5826196], [122.1483819, 30.5829157], [122.1482587, 30.5829021], [122.1483125, 30.5830639], [122.1482562, 30.5832163], [122.1482414, 30.5832949], [122.1482106, 30.5833503], [122.1483142, 30.5837312], [122.1485427, 30.5838366], [122.1486754, 30.5839598], [122.1486231, 30.5841148], [122.1488158, 30.5841844], [122.1489529, 30.5840471], [122.1489392, 30.5842068], [122.1489685, 30.5842949], [122.1490877, 30.584289], [122.14917, 30.58423], [122.1494392, 30.5844502], [122.1497523, 30.5845217], [122.1500284, 30.5846197], [122.1500569, 30.584776], [122.1502687, 30.5848445], [122.1503309, 30.5850005], [122.1504743, 30.5851075], [122.1508332, 30.5852479], [122.1508866, 30.5853412], [122.151058, 30.5854161], [122.1515005, 30.5854778], [122.1515188, 30.5855186], [122.1512903, 30.5855419], [122.151277, 30.5856096], [122.1514047, 30.5857735], [122.151598, 30.5857786], [122.1517728, 30.5858314], [122.151751, 30.5859895], [122.15212, 30.5861799], [122.1525852, 30.5864718], [122.1527034, 30.5864943], [122.1528026, 30.5865586], [122.1528984, 30.586559], [122.1529339, 30.5864689], [122.1530288, 30.5865115], [122.1531112, 30.5864956], [122.153018, 30.5863524], [122.1531828, 30.5863046], [122.1532597, 30.5864689], [122.1534012, 30.586511], [122.1537139, 30.5864361], [122.1537325, 30.5865293], [122.1537978, 30.5865297], [122.1538748, 30.5864937], [122.1539425, 30.5864215], [122.1541499, 30.586569], [122.1544143, 30.5866394], [122.1543778, 30.5864846], [122.1547846, 30.5865827], [122.1547421, 30.5864691], [122.154915, 30.5863904], [122.1550901, 30.5863485], [122.1550837, 30.5861869], [122.1553003, 30.5861951], [122.1553406, 30.586062], [122.1554057, 30.5859779], [122.1554957, 30.5858847], [122.1556409, 30.5859186], [122.1557507, 30.5858672], [122.1559386, 30.5858543], [122.1560027, 30.5859541], [122.15612, 30.5859899], [122.1562359, 30.5859686], [122.1563296, 30.5860175], [122.1562907, 30.5861122], [122.1564588, 30.5861566], [122.1564986, 30.5861178], [122.1566016, 30.5861792], [122.1566744, 30.586216], [122.1567285, 30.5861414], [122.1568463, 30.5861217], [122.1570525, 30.5860259], [122.1572641, 30.5860429], [122.1573864, 30.5860696], [122.1573998, 30.586291], [122.1575693, 30.586292], [122.1575425, 30.5863824], [122.1575812, 30.5864484], [122.15767, 30.5864415], [122.1576595, 30.5863269], [122.1577179, 30.5863135], [122.1577692, 30.5863488], [122.157833, 30.5864557], [122.1579144, 30.5864863], [122.1579286, 30.586523], [122.1580177, 30.5865177], [122.1580393, 30.586578], [122.1581372, 30.5866213], [122.1581615, 30.5866755], [122.1582582, 30.5866733], [122.1583228, 30.586604], [122.158479, 30.5865718], [122.1585393, 30.5863689], [122.1584506, 30.5863278], [122.158433, 30.586155], [122.1584852, 30.586003], [122.1587717, 30.5860764], [122.158861, 30.5860144], [122.1590096, 30.586022], [122.159157, 30.5859083], [122.1593184, 30.5858798], [122.1594491, 30.58587], [122.1594299, 30.5859868], [122.1594932, 30.5860141], [122.1595872, 30.5859811], [122.1596615, 30.5858801], [122.1597577, 30.5860386], [122.1597461, 30.5861813], [122.1598572, 30.5863023], [122.1599814, 30.5864132], [122.16005, 30.5863208], [122.1601611, 30.5863685], [122.1602523, 30.5864396], [122.1602692, 30.5862533], [122.1603714, 30.5863064], [122.1604418, 30.5862925], [122.1604899, 30.5862342], [122.1605768, 30.5861882], [122.1607154, 30.5862667], [122.1608405, 30.5861754], [122.1609938, 30.5862212], [122.1612049, 30.5861315], [122.1612361, 30.5859465], [122.1613544, 30.5860064], [122.1614241, 30.5859815], [122.1614147, 30.5858928], [122.1614868, 30.5858804], [122.1615966, 30.5858875], [122.1616994, 30.5858337], [122.1617704, 30.5858936], [122.1618877, 30.5858947], [122.161882, 30.5858059], [122.16194, 30.5857201], [122.1620394, 30.5856808], [122.1620973, 30.5857609], [122.1622055, 30.5857642], [122.1622291, 30.5858498], [122.1622974, 30.5858445], [122.1623778, 30.5858058], [122.162479, 30.5856867], [122.1625113, 30.5856149], [122.1624826, 30.5855326], [122.1625529, 30.5854992], [122.1626272, 30.5854973], [122.1625504, 30.5853635], [122.1625756, 30.5852885], [122.1625041, 30.5852611], [122.1625401, 30.5852201], [122.1622908, 30.5851173], [122.1621531, 30.5851606], [122.1620316, 30.585169], [122.1619675, 30.5851228], [122.1618058, 30.5851465], [122.1616848, 30.5852053], [122.1615375, 30.585253], [122.161512, 30.5853217], [122.1614246, 30.5853121], [122.1613718, 30.5853559], [122.1613434, 30.5853158], [122.1610711, 30.5853757], [122.1610306, 30.5853343], [122.1612301, 30.5852936], [122.1612426, 30.5852285], [122.1612835, 30.5851738], [122.1611235, 30.5851344], [122.1609798, 30.5851931], [122.1609048, 30.5851406], [122.1609461, 30.5850638], [122.1608741, 30.585001], [122.1607655, 30.5850098], [122.1607844, 30.5851192], [122.1606733, 30.5851165], [122.16057, 30.5850291], [122.1604407, 30.5850396], [122.1603041, 30.5850678], [122.1602953, 30.5851251], [122.1602093, 30.5851859], [122.159952, 30.5852061], [122.159856, 30.585173], [122.1596615, 30.5852089], [122.1595076, 30.5851643], [122.1593799, 30.5850564], [122.1593451, 30.5850754], [122.1592394, 30.5850653], [122.1592037, 30.5850078], [122.159126, 30.5849751], [122.1590733, 30.5849799], [122.1590483, 30.5849476], [122.1589737, 30.5849361], [122.1589092, 30.5850245], [122.1589579, 30.5852682], [122.1588234, 30.5851326], [122.1587313, 30.5852233], [122.1586464, 30.5851798], [122.1585428, 30.5852286], [122.1584251, 30.5851585], [122.1584445, 30.5852895], [122.15837, 30.58532], [122.158112, 30.5853181], [122.1579138, 30.5851747], [122.1575086, 30.5848703], [122.1572877, 30.5845301], [122.1569737, 30.5841431], [122.1569877, 30.5839853], [122.1570627, 30.583943], [122.1569891, 30.5838759], [122.1568484, 30.5838998], [122.1568012, 30.5838888], [122.1568954, 30.5838371], [122.1568371, 30.5837733], [122.1566393, 30.5837576], [122.1565891, 30.5836631], [122.1564319, 30.5836247], [122.1562557, 30.5835899], [122.1560821, 30.5836884], [122.1561009, 30.5839308], [122.156012, 30.5838688], [122.1558174, 30.5838733], [122.1557563, 30.5837279], [122.1555784, 30.5837232], [122.1553189, 30.583622], [122.15512, 30.58375], [122.1551575, 30.5835369], [122.1550039, 30.5835239], [122.1548875, 30.5834269], [122.154743, 30.5833661], [122.1547115, 30.5834766], [122.1544757, 30.5832796], [122.1541629, 30.5833713], [122.1535397, 30.583574], [122.1532571, 30.5836473], [122.1532444, 30.5835401], [122.1530956, 30.5833902], [122.1529482, 30.5832751], [122.1529164, 30.5833359], [122.1528312, 30.5832127], [122.1526929, 30.5832903], [122.1526013, 30.583193], [122.1524505, 30.5833197], [122.152351, 30.5832253], [122.15209, 30.5833304], [122.1521556, 30.5831498], [122.1521325, 30.5829893], [122.1519887, 30.5829987], [122.1519393, 30.5831258], [122.1519012, 30.5831108], [122.1518251, 30.5833742], [122.1517809, 30.5831484], [122.15169, 30.5831557], [122.1515348, 30.5829668], [122.1513422, 30.5828844], [122.1510877, 30.5828964], [122.1510692, 30.5829728], [122.1509998, 30.5829788], [122.1509618, 30.5828467], [122.1508333, 30.5828353], [122.150694, 30.5825912], [122.1502745, 30.5826834], [122.150218, 30.5826079], [122.1503582, 30.5825724], [122.1503681, 30.5824643], [122.1503333, 30.5822827], [122.150564, 30.5822037], [122.1505249, 30.5821538], [122.1504493, 30.5821529], [122.1503589, 30.5820287], [122.1504751, 30.5819831], [122.1504111, 30.5818728], [122.1505139, 30.5818081], [122.1504796, 30.5816225], [122.1503541, 30.5817099], [122.1503543, 30.5815699], [122.1503017, 30.5814928], [122.1500211, 30.58159]]]}}, {"type": "Feature", "properties": {"source": "OpenStreetMap natural=coastline", "license": "ODbL 1.0"}, "geometry": {"type": "Polygon", "coordinates": [[[122.033506, 30.5894923], [122.0333053, 30.5894253], [122.0329893, 30.589538], [122.0327908, 30.5896026], [122.0326889, 30.5897273], [122.0324796, 30.5898405], [122.0324635, 30.5898658], [122.0323884, 30.590106], [122.0323804, 30.5902053], [122.0324206, 30.5903253], [122.0325386, 30.5904246], [122.0326701, 30.5904985], [122.0327961, 30.5905816], [122.0329034, 30.5906624], [122.0330107, 30.5906948], [122.0330617, 30.5907848], [122.0330805, 30.5908541], [122.0331368, 30.5909349], [122.033228, 30.5910065], [122.0332387, 30.5911127], [122.0333245, 30.5912166], [122.0333728, 30.5912951], [122.0333889, 30.5915052], [122.0334426, 30.5916553], [122.0334908, 30.5919023], [122.033515, 30.5920501], [122.0334828, 30.5920824], [122.0334962, 30.5922048], [122.0335042, 30.5922348], [122.0335096, 30.5923456], [122.0334667, 30.5924287], [122.033413, 30.592468], [122.0333487, 30.5925673], [122.0333192, 30.5926596], [122.033354, 30.5928466], [122.0333648, 30.5930059], [122.033354, 30.593029], [122.0332468, 30.5930313], [122.0331743, 30.5930175], [122.0330885, 30.5930821], [122.0330724, 30.5931653], [122.0331582, 30.593253], [122.0332414, 30.5933199], [122.0332789, 30.5934169], [122.0333111, 30.5935023], [122.0332789, 30.5936109], [122.033295, 30.5936986], [122.0333245, 30.5937402], [122.0332548, 30.5938233], [122.0332789, 30.5939087], [122.0333862, 30.593971], [122.0334774, 30.594008], [122.0335552, 30.594105], [122.0336652, 30.5941973], [122.0338771, 30.5942781], [122.0340487, 30.5943705], [122.034097, 30.5944236], [122.0340487, 30.594442], [122.0339897, 30.5944975], [122.0339844, 30.5945436], [122.0340326, 30.5946037], [122.0341265, 30.5946475], [122.0342365, 30.5946683], [122.0346495, 30.5947884], [122.0348695, 30.5948923], [122.0349982, 30.5949407], [122.0352986, 30.5949638], [122.0355776, 30.5949038], [122.0357814, 30.5948969], [122.0359182, 30.5948738], [122.035996, 30.5949154], [122.0361274, 30.5949431], [122.0362723, 30.5949292], [122.0363501, 30.5949292], [122.0364386, 30.5949523], [122.0364627, 30.5949708], [122.0366102, 30.5950308], [122.0366424, 30.5950169], [122.0366719, 30.5949592], [122.0366639, 30.5949015], [122.0366317, 30.5947976], [122.036452, 30.5945506], [122.0363528, 30.5944536], [122.0362884, 30.5943774], [122.0363098, 30.5943197], [122.0363528, 30.5942089], [122.0363528, 30.594068], [122.0362884, 30.593948], [122.0362186, 30.5938487], [122.0360872, 30.5937332], [122.0360175, 30.5937171], [122.0360202, 30.5936593], [122.0360684, 30.5935808], [122.036055, 30.5935462], [122.0359853, 30.5933938], [122.0358485, 30.5932391], [122.0357466, 30.5931375], [122.0356527, 30.5930775], [122.035583, 30.5929852], [122.0356581, 30.5928259], [122.0356339, 30.5926827], [122.0355749, 30.5925996], [122.0354784, 30.5925349], [122.0352638, 30.592438], [122.0350921, 30.5923918], [122.0348909, 30.5923756], [122.0346844, 30.5923017], [122.0345181, 30.5921563], [122.0344833, 30.5920316], [122.0344216, 30.5919069], [122.034384, 30.5918307], [122.0343438, 30.5917822], [122.0343089, 30.5917245], [122.0343089, 30.5916091], [122.0343438, 30.5915167], [122.0344081, 30.5914867], [122.0344993, 30.5914821], [122.0346093, 30.5914752], [122.0346254, 30.5914313], [122.0345905, 30.5913713], [122.0344886, 30.5913089], [122.0344618, 30.5912928], [122.0344081, 30.5911981], [122.0342244, 30.591175], [122.0341721, 30.5911184], [122.0341547, 30.5910434], [122.0342097, 30.5910699], [122.0342714, 30.5910411], [122.0342351, 30.591018], [122.0341641, 30.5909707], [122.0341359, 30.5909233], [122.0341037, 30.5908379], [122.0341091, 30.5907398], [122.034101, 30.5906001], [122.0340098, 30.5905147], [122.0339616, 30.5904269], [122.0338985, 30.5901545], [122.0338047, 30.5900436], [122.0337389, 30.5899305], [122.0336947, 30.5898531], [122.0335861, 30.5896961], [122.033506, 30.5894923]]]}}, {"type": "Feature", "properties": {"source": "OpenStreetMap natural=coastline", "license": "ODbL 1.0"}, "geometry": {"type": "Polygon", "coordinates": [[[122.0331399, 30.5946001], [122.0322499, 30.5947201], [122.03195, 30.5947201], [122.0313599, 30.5947201], [122.03121, 30.5948499], [122.03106, 30.5949699], [122.0309099, 30.5951], [122.0309099, 30.59536], [122.0312, 30.5956199], [122.031527, 30.5958102], [122.0322401, 30.5961501], [122.03372, 30.5961501], [122.03387, 30.59589], [122.0340299, 30.5956399], [122.03373, 30.5956399], [122.03373, 30.5953801], [122.0331399, 30.59537], [122.0331399, 30.5946001]]]}}, {"type": "Feature", "properties": {"source": "OpenStreetMap natural=coastline", "license": "ODbL 1.0"}, "geometry": {"type": "Polygon", "coordinates": [[[122.0800135, 30.5830993], [122.0800118, 30.5830003], [122.0803584, 30.5822395], [122.0803978, 30.5819448], [122.0803411, 30.5816909], [122.0802206, 30.5816007], [122.0801948, 30.581326], [122.0800755, 30.5813657], [122.0798973, 30.5813235], [122.0798915, 30.5812658], [122.0796984, 30.5812626], [122.0796957, 30.5813322], [122.0793338, 30.581509], [122.0790803, 30.58155], [122.0788038, 30.581543], [122.0781907, 30.5814082], [122.07801, 30.5812999], [122.0774818, 30.5807429], [122.07697, 30.58065], [122.0763799, 30.5803899], [122.07623, 30.5802601], [122.07609, 30.58013], [122.0759399, 30.58], [122.07579, 30.57987], [122.0757069, 30.5795019], [122.0757964, 30.579139], [122.07566, 30.57845], [122.0755099, 30.57832], [122.0749201, 30.5780599], [122.07477, 30.5779301], [122.0746199, 30.5778], [122.0744801, 30.57767], [122.07433, 30.5771601], [122.07374, 30.5771501], [122.07389, 30.5769], [122.07389, 30.57664], [122.07375, 30.57613], [122.07286, 30.5762501], [122.0725691, 30.5764821], [122.0721525, 30.576575], [122.0717738, 30.576723], [122.0715343, 30.5767061], [122.0713032, 30.5767801], [122.0711006, 30.5769031], [122.0709264, 30.577004], [122.07077, 30.577], [122.0704701, 30.576895], [122.0702837, 30.576748], [122.0701114, 30.576555], [122.06974, 30.5758399], [122.0695901, 30.5757101], [122.06944, 30.57558], [122.0693, 30.57545], [122.0691501, 30.57531], [122.06899, 30.57519], [122.06811, 30.5749301], [122.06752, 30.5749201], [122.0673701, 30.5750501], [122.06707, 30.57556], [122.0670599, 30.5758201], [122.0669173, 30.575926], [122.06632, 30.5760699], [122.0662124, 30.5765691], [122.0655979, 30.577084], [122.06556, 30.57735], [122.0653206, 30.577814], [122.0648101, 30.57799], [122.0642453, 30.578257], [122.0639135, 30.5785879], [122.0637528, 30.5786059], [122.0637236, 30.5784844], [122.0635991, 30.5785265], [122.0636412, 30.578813], [122.063937, 30.5790243], [122.0639643, 30.5792936], [122.0636496, 30.5796666], [122.05642, 30.5860906], [122.0559813, 30.5861371], [122.0554879, 30.5858316], [122.0553953, 30.5862415], [122.0548271, 30.5868128], [122.0540139, 30.5874796], [122.0532464, 30.5879418], [122.0519569, 30.588056], [122.0514089, 30.5882556], [122.05178, 30.58856], [122.0519889, 30.5890527], [122.05163, 30.5890799], [122.0514395, 30.5890168], [122.0513566, 30.5891672], [122.0512007, 30.5894052], [122.0511487, 30.5895537], [122.0513663, 30.5898839], [122.0510525, 30.5903076], [122.0510322, 30.5908801], [122.051107, 30.5910795], [122.0511713, 30.5911164], [122.0512118, 30.5912231], [122.0511831, 30.5912679], [122.0512653, 30.5914778], [122.0513931, 30.5914725], [122.0514824, 30.5915826], [122.0516399, 30.5923725], [122.0514507, 30.5926625], [122.0513297, 30.5929501], [122.05129, 30.59345], [122.0515801, 30.59358], [122.0519524, 30.5936788], [122.052187, 30.5937911], [122.0528764, 30.5945232], [122.0530193, 30.59541], [122.0532, 30.59578], [122.0534253, 30.5960785], [122.0537337, 30.595992], [122.0539093, 30.5957947], [122.0539282, 30.5954566], [122.0562154, 30.5953705], [122.0591912, 30.5956539], [122.0592546, 30.5956606], [122.0660299, 30.5963167], [122.0660701, 30.5963668], [122.0661554, 30.596473], [122.066597, 30.59615], [122.0669947, 30.5962553], [122.0670916, 30.5961978], [122.0672987, 30.5963271], [122.0679037, 30.5966538], [122.0683006, 30.5968201], [122.068402, 30.5968797], [122.0686788, 30.596646], [122.0688164, 30.5967242], [122.0693899, 30.5970501], [122.070192, 30.5971346], [122.0702885, 30.5970964], [122.0704039, 30.5970662], [122.07087, 30.5970601], [122.0723807, 30.5966981], [122.0729043, 30.5971445], [122.07355, 30.59734], [122.0741098, 30.5975004], [122.0744776, 30.5976754], [122.0746602, 30.597684], [122.0749581, 30.5976129], [122.075079, 30.5972842], [122.0760616, 30.5973892], [122.0765901, 30.5977402], [122.0766601, 30.5978384], [122.0770376, 30.5979668], [122.0772652, 30.5979207], [122.0773353, 30.5977037], [122.0770108, 30.5973239], [122.0770989, 30.5972292], [122.0772758, 30.5972569], [122.0776487, 30.5971173], [122.0778472, 30.5972005], [122.078419, 30.5971615], [122.0791329, 30.5971946], [122.0791117, 30.5969361], [122.0794999, 30.5961], [122.080183, 30.5962608], [122.0802074, 30.5961536], [122.0794994, 30.5959885], [122.079424, 30.5958398], [122.0793095, 30.5956729], [122.0794355, 30.595426], [122.0796068, 30.5954524], [122.0796323, 30.5953282], [122.0795481, 30.5953191], [122.0795946, 30.595125], [122.0800897, 30.5950571], [122.0804293, 30.5949142], [122.0806738, 30.5947454], [122.0811132, 30.5945337], [122.0813467, 30.5946035], [122.0815549, 30.5947469], [122.0817522, 30.594763], [122.0832582, 30.5947421], [122.0838299, 30.594847], [122.0844584, 30.5949538], [122.0847101, 30.59523], [122.0847101, 30.5957499], [122.0848499, 30.5962601], [122.08544, 30.5962701], [122.0856001, 30.5957499], [122.085788, 30.5952593], [122.0860973, 30.595085], [122.0866697, 30.5949242], [122.0869524, 30.5948436], [122.0873018, 30.5946452], [122.087457, 30.594494], [122.0875607, 30.5943373], [122.0876558, 30.5942921], [122.0886387, 30.5939303], [122.0887025, 30.5938975], [122.0890655, 30.5937043], [122.0895262, 30.5934738], [122.0896852, 30.5935369], [122.0899301, 30.5936001], [122.09023, 30.5938599], [122.0905199, 30.59399], [122.0908552, 30.593743], [122.09112, 30.5936101], [122.0917201, 30.59387], [122.09201, 30.594], [122.0921601, 30.5937399], [122.0923013, 30.5932513], [122.0917201, 30.5928399], [122.09112, 30.59258], [122.09099, 30.59245], [122.0908301, 30.59232], [122.09054, 30.59232], [122.08964, 30.59257], [122.0893865, 30.5927845], [122.0890769, 30.5929025], [122.0885237, 30.5929493], [122.0879699, 30.5927854], [122.0872701, 30.5924199], [122.0870249, 30.5923812], [122.0859778, 30.5921219], [122.0857864, 30.5920619], [122.0855762, 30.592042], [122.0853795, 30.5920487], [122.0850488, 30.5921157], [122.0847257, 30.5921481], [122.0844808, 30.5920971], [122.0843, 30.59202], [122.0841127, 30.5919175], [122.0838699, 30.5917992], [122.0836642, 30.5917916], [122.0832262, 30.5918128], [122.0830557, 30.5918067], [122.0828975, 30.5917688], [122.0824522, 30.5914953], [122.0822838, 30.5912804], [122.0821916, 30.5910551], [122.0821416, 30.5906166], [122.0821001, 30.590401], [122.0820303, 30.5902504], [122.0819419, 30.5901257], [122.0818572, 30.5900611], [122.0820864, 30.589672], [122.0821915, 30.5897289], [122.0822903, 30.5898396], [122.082634, 30.590841], [122.082728, 30.5909553], [122.0828732, 30.5910237], [122.0889356, 30.5923797], [122.0890951, 30.5923882], [122.0892493, 30.5923401], [122.0902944, 30.5917957], [122.0924481, 30.5922825], [122.0927039, 30.5922929], [122.0928845, 30.5922185], [122.0933408, 30.5910586], [122.0937746, 30.5899537], [122.0938072, 30.5893891], [122.0938377, 30.5894033], [122.0939077, 30.5893312], [122.0804787, 30.583085], [122.0803341, 30.583018], [122.0802695, 30.5831444], [122.080199, 30.5831835], [122.0797369, 30.5839137], [122.0797368, 30.5855365], [122.0797368, 30.585544], [122.0797071, 30.5856037], [122.0796149, 30.5856051], [122.0795092, 30.5855487], [122.0794475, 30.5854589], [122.0790723, 30.584475], [122.079038, 30.584377], [122.0790037, 30.584153], [122.0790314, 30.5840578], [122.0791149, 30.5839383], [122.0792134, 30.5838225], [122.0792885, 30.583803], [122.0793984, 30.5837739], [122.0794965, 30.5837151], [122.0795921, 30.5836203], [122.0797216, 30.5835502], [122.0800135, 30.5830993]]]}}, {"type": "Feature", "properties": {"source": "OpenStreetMap natural=coastline", "license": "ODbL 1.0"}, "geometry": {"type": "Polygon", "coordinates": [[[121.97607, 30.59455], [121.97548, 30.59455], [121.97369, 30.59466], [121.97368, 30.59543], [121.9748701, 30.59557], [121.97517, 30.59557], [121.97547, 30.59558], [121.97606, 30.59558], [121.9766501, 30.59559], [121.97725, 30.5957201], [121.97725, 30.5951999], [121.97696, 30.5951999], [121.97696, 30.5949501], [121.97636, 30.59481], [121.9762199, 30.59468], [121.97607, 30.59455]]]}}, {"type": "Feature", "properties": {"source": "OpenStreetMap natural=coastline", "license": "ODbL 1.0"}, "geometry": {"type": "Polygon", "coordinates": [[[122.0401329, 30.6494662], [122.0400185, 30.6494404], [122.0397136, 30.6494249], [122.0393783, 30.649388], [122.0390779, 30.6493603], [122.0387131, 30.6493418], [122.0385267, 30.6493211], [122.0384006, 30.6493107], [122.038292, 30.6493084], [122.0381981, 30.6493291], [122.0381069, 30.649358], [122.0380231, 30.6493787], [122.0379768, 30.6493868], [122.037952, 30.6493857], [122.0379239, 30.6493816], [122.0379071, 30.6493695], [122.0378937, 30.6493516], [122.0378789, 30.6493314], [122.0378622, 30.6493205], [122.0378374, 30.6493176], [122.0378079, 30.6493211], [122.0343836, 30.6501726], [122.0344323, 30.6503469], [122.0338905, 30.6504829], [122.0338114, 30.6504852], [122.0337725, 30.6504806], [122.0337483, 30.6504667], [122.0337322, 30.650439], [122.0336276, 30.6501679], [122.033582, 30.6500664], [122.0335498, 30.6500341], [122.0335042, 30.6500225], [122.0334586, 30.6500271], [122.0333433, 30.6500548], [122.0256883, 30.6519608], [122.0209086, 30.6531468], [122.0161235, 30.654319], [122.0118347, 30.655385], [122.0101067, 30.6558084], [122.0100289, 30.6558286], [122.0100068, 30.655839], [122.0099987, 30.6558465], [122.0099974, 30.6558563], [122.01, 30.6558667], [122.0100953, 30.656143], [122.0100953, 30.6561684], [122.0100875, 30.6561806], [122.0096601, 30.6562849], [122.0096279, 30.6562947], [122.0096131, 30.6563033], [122.0096091, 30.6563137], [122.0096098, 30.6563253], [122.0097193, 30.656625], [122.0097224, 30.6566644], [122.0097224, 30.6567037], [122.0097077, 30.656736], [122.0096768, 30.6567579], [122.0096353, 30.6567752], [122.0094824, 30.6568179], [122.00919, 30.6568917], [122.0087609, 30.6570071], [122.0082888, 30.6571317], [122.0072561, 30.6573786], [122.0061591, 30.6576531], [122.0052445, 30.6578746], [122.0045874, 30.6580627], [122.0044842, 30.6580963], [122.0044425, 30.658125], [122.0044318, 30.6581469], [122.0044331, 30.6581688], [122.0044465, 30.6581873], [122.0044854, 30.6582023], [122.0045364, 30.6582], [122.0050138, 30.6580892], [122.0061672, 30.6578216], [122.0076424, 30.6574478], [122.008093, 30.6573416], [122.0088097, 30.6571544], [122.0089469, 30.6571286], [122.0090752, 30.6571185], [122.0092078, 30.6571136], [122.0093337, 30.6571235], [122.0094503, 30.6571447], [122.0095893, 30.6571867], [122.0096995, 30.6572467], [122.0098331, 30.6573314], [122.0099239, 30.6574093], [122.0100026, 30.6574931], [122.0100573, 30.6575814], [122.0103407, 30.6584215], [122.0106599, 30.6593882], [122.0107891, 30.6597982], [122.0107993, 30.6598785], [122.0107913, 30.6599327], [122.0107698, 30.66001], [122.010743, 30.660085], [122.010709, 30.6601538], [122.0106371, 30.6602707], [122.0105807, 30.6603792], [122.0105258, 30.6604507], [122.0104641, 30.6604865], [122.0103849, 30.660513], [122.0103237, 30.6605216], [122.0102213, 30.6605441], [122.010157, 30.6605626], [122.0100993, 30.6605839], [122.0100765, 30.6605978], [122.010051, 30.6606393], [122.0100356, 30.6606693], [122.0100188, 30.6606982], [122.0100095, 30.6607217], [122.0100081, 30.6607633], [122.0100014, 30.6607906], [122.0099814, 30.660836], [122.0099866, 30.6608522], [122.0099985, 30.6608641], [122.0100206, 30.6608759], [122.0100572, 30.6608807], [122.0100691, 30.6608863], [122.0100859, 30.6608868], [122.0101838, 30.6608649], [122.0103115, 30.6608163], [122.0104339, 30.6607818], [122.0104634, 30.6607754], [122.0104875, 30.6607737], [122.0105137, 30.6607743], [122.0105311, 30.6607789], [122.0105707, 30.6607951], [122.0106044, 30.6608161], [122.0106311, 30.6608462], [122.0106826, 30.6608839], [122.0107283, 30.6609018], [122.0107707, 30.6609127], [122.0108077, 30.660914], [122.0108517, 30.6609098], [122.0109366, 30.6609129], [122.0109978, 30.6609087], [122.0110287, 30.6608891], [122.011081, 30.6608268], [122.0111185, 30.6607506], [122.0111321, 30.6606824], [122.0111204, 30.6606122], [122.0111306, 30.6605822], [122.0111555, 30.660555], [122.0112272, 30.6605476], [122.0112674, 30.660539], [122.0112895, 30.6605332], [122.0113204, 30.6605268], [122.0113388, 30.6605241], [122.011394, 30.6605121], [122.0114807, 30.6604748], [122.0115434, 30.6604381], [122.0115745, 30.6604023], [122.0115799, 30.6603665], [122.0115946, 30.6603169], [122.0116559, 30.6602723], [122.0117234, 30.6602469], [122.0118486, 30.6602305], [122.0119299, 30.6602131], [122.0120303, 30.6601933], [122.0121752, 30.6602117], [122.0123753, 30.660251], [122.0125119, 30.6602716], [122.0126333, 30.6602672], [122.012745, 30.6602467], [122.0128327, 30.6602165], [122.0130053, 30.6601524], [122.0135832, 30.65995], [122.0143989, 30.6596582], [122.0148195, 30.6595209], [122.0152926, 30.6593736], [122.0153673, 30.6593756], [122.0154311, 30.6594024], [122.0154903, 30.6594392], [122.0155465, 30.6594998], [122.0156515, 30.6596585], [122.0157771, 30.6597734], [122.0158794, 30.6598151], [122.0159621, 30.6598185], [122.0160323, 30.6597874], [122.0161208, 30.6597528], [122.0162094, 30.6597643], [122.0163375, 30.6598349], [122.0164296, 30.6598853], [122.0165446, 30.6599858], [122.0167192, 30.6601781], [122.0168282, 30.6602645], [122.0169518, 30.6603087], [122.0170702, 30.6603334], [122.017205, 30.6603391], [122.0173649, 30.6603383], [122.0177542, 30.6603117], [122.0179175, 30.660325], [122.0181196, 30.660356], [122.0187279, 30.6603834], [122.019897, 30.6604813], [122.0207155, 30.6605626], [122.0210829, 30.6606457], [122.0212385, 30.660678], [122.0213672, 30.6606849], [122.0214759, 30.6607016], [122.0215335, 30.6607218], [122.021608, 30.6607431], [122.0216677, 30.6607726], [122.0216952, 30.6607806], [122.021746, 30.6607743], [122.0218192, 30.6607541], [122.0218688, 30.6607207], [122.0219319, 30.660671], [122.0220356, 30.6606244], [122.0221598, 30.6605776], [122.0222791, 30.6605365], [122.0224231, 30.660455], [122.0225896, 30.6603713], [122.02271, 30.6602592], [122.0227477, 30.6601916], [122.0228401, 30.6601078], [122.022946, 30.66001], [122.0229822, 30.6599833], [122.0230262, 30.6599512], [122.0230705, 30.6599546], [122.0231093, 30.6599731], [122.0231407, 30.6600035], [122.0232005, 30.6600585], [122.0232609, 30.6601254], [122.023344, 30.6602257], [122.023437, 30.6603088], [122.0234997, 30.6603513], [122.0236149, 30.6604496], [122.0237276, 30.6605107], [122.0237933, 30.6605188], [122.0238496, 30.6605084], [122.0238885, 30.6605072], [122.023918, 30.6605107], [122.0239368, 30.6605234], [122.0239408, 30.6605418], [122.0239207, 30.6605845], [122.0238724, 30.6606376], [122.0238295, 30.6606687], [122.0238148, 30.660701], [122.0238268, 30.6607287], [122.0238698, 30.6607518], [122.0239663, 30.6607703], [122.0240347, 30.6607645], [122.0240951, 30.6607483], [122.0241225, 30.6607265], [122.0241407, 30.6606803], [122.0241454, 30.6606277], [122.0241594, 30.6605857], [122.0241809, 30.6605522], [122.0242453, 30.6605349], [122.024323, 30.660528], [122.0243727, 30.6605201], [122.0243973, 30.6605011], [122.0244223, 30.6604795], [122.0244437, 30.6604622], [122.0245014, 30.6604299], [122.0245846, 30.6604011], [122.024657, 30.6603711], [122.0247146, 30.6603376], [122.0247795, 30.6602947], [122.0248229, 30.660245], [122.0248619, 30.6601914], [122.0249524, 30.6601252], [122.0250236, 30.6600933], [122.0250702, 30.6600646], [122.0250841, 30.6600423], [122.0250784, 30.660019], [122.0250559, 30.6599981], [122.0250116, 30.6599517], [122.0250043, 30.65989], [122.0249453, 30.6598174], [122.024897, 30.6597366], [122.0248729, 30.6596928], [122.0248648, 30.6595659], [122.0248622, 30.6594574], [122.02483, 30.6593928], [122.0247871, 30.6593375], [122.024693, 30.6592709], [122.0246422, 30.6591944], [122.0246449, 30.6591321], [122.0246664, 30.6590767], [122.0247522, 30.6590029], [122.0249751, 30.6589538], [122.0262408, 30.658689], [122.0275016, 30.6583756], [122.0282706, 30.6581735], [122.0290889, 30.6579317], [122.0299937, 30.6576234], [122.030843, 30.6573205], [122.0317567, 30.6569547], [122.0325707, 30.6565947], [122.0336549, 30.6561029], [122.0343403, 30.6557815], [122.0348963, 30.6554773], [122.0349821, 30.6554288], [122.0350492, 30.6554035], [122.0351136, 30.6553827], [122.0351779, 30.6553758], [122.0352638, 30.6554312], [122.0353818, 30.6555281], [122.0355186, 30.6556088], [122.0356929, 30.6556596], [122.0359209, 30.655648], [122.0361626, 30.6556183], [122.0363742, 30.655535], [122.0365888, 30.6554635], [122.0368235, 30.6553677], [122.0370182, 30.6552931], [122.0370877, 30.6552835], [122.0371789, 30.6552835], [122.0372607, 30.6552869], [122.0373277, 30.6552973], [122.0373693, 30.6553169], [122.0373921, 30.6553423], [122.0374069, 30.6553781], [122.0374148, 30.6554164], [122.0374431, 30.6554462], [122.0374729, 30.6554594], [122.0375304, 30.6554729], [122.0376134, 30.6554519], [122.0376992, 30.6554046], [122.037769, 30.6553596], [122.037839, 30.655303], [122.0380066, 30.6550753], [122.0381168, 30.6549895], [122.0382464, 30.6549372], [122.0384112, 30.6548935], [122.0386886, 30.654882], [122.038962, 30.654895], [122.0392392, 30.6549062], [122.0395842, 30.6549142], [122.0400344, 30.6549309], [122.0403928, 30.6549353], [122.0406779, 30.6549062], [122.0412586, 30.654777], [122.0414194, 30.6547389], [122.0415133, 30.6546986], [122.0415589, 30.6546732], [122.0416394, 30.654649], [122.0417601, 30.6546432], [122.0418848, 30.6546524], [122.0420618, 30.6546709], [122.042204, 30.6546951], [122.042384, 30.6547158], [122.0424347, 30.6547159], [122.0424709, 30.6547089], [122.042499, 30.6546847], [122.0424977, 30.6546628], [122.0424789, 30.6546328], [122.0424668, 30.6546005], [122.0424642, 30.6545751], [122.0424762, 30.6545428], [122.0424937, 30.654522], [122.0425124, 30.6544978], [122.0425084, 30.6544782], [122.0424883, 30.6544621], [122.0424548, 30.6544505], [122.0424078, 30.6544471], [122.0423341, 30.6544436], [122.0422241, 30.6544401], [122.0420726, 30.6544355], [122.0419132, 30.6544289], [122.041765, 30.6544249], [122.0416461, 30.654424], [122.0415777, 30.6544078], [122.0415254, 30.6543778], [122.0414771, 30.654349], [122.0414297, 30.6543196], [122.0413764, 30.6543053], [122.0413202, 30.6542959], [122.0412419, 30.6542769], [122.0411589, 30.6542466], [122.0410408, 30.6542364], [122.0407985, 30.6542263], [122.0405611, 30.6542198], [122.0402313, 30.6541572], [122.0399764, 30.6540975], [122.0397511, 30.6540583], [122.0393472, 30.6539896], [122.0391294, 30.6539526], [122.0390189, 30.6538852], [122.0389357, 30.6537837], [122.0388928, 30.6536798], [122.0388767, 30.6536037], [122.0388821, 30.6535183], [122.0389813, 30.6531561], [122.0390698, 30.6528169], [122.0391473, 30.6525022], [122.0391912, 30.652286], [122.0391932, 30.6521523], [122.0392227, 30.6519654], [122.0392656, 30.6517901], [122.0393628, 30.651672], [122.0399297, 30.651189], [122.040396, 30.6507003], [122.0405478, 30.650464], [122.0406054, 30.650334], [122.040651, 30.6502487], [122.0406792, 30.6502244], [122.0407301, 30.6501991], [122.0407594, 30.6501802], [122.0407744, 30.6501575], [122.0407744, 30.6501275], [122.0407636, 30.6500975], [122.0407422, 30.6500802], [122.04071, 30.6500698], [122.0406684, 30.6500606], [122.0406161, 30.6500398], [122.0405866, 30.6500191], [122.0405531, 30.6499764], [122.0405343, 30.6499429], [122.0405142, 30.6499106], [122.0404994, 30.6498772], [122.0404901, 30.6498483], [122.040474, 30.6498206], [122.0404512, 30.649771], [122.0404391, 30.6497203], [122.0404378, 30.6496845], [122.0404176, 30.649651], [122.0403573, 30.6495991], [122.0402312, 30.6495299], [122.0401329, 30.6494662]]]}}, {"type": "Feature", "properties": {"source": "OpenStreetMap natural=coastline", "license": "ODbL 1.0"}, "geometry": {"type": "Polygon", "coordinates": [[[122.0135301, 30.5925697], [122.0139306, 30.5928727], [122.0142916, 30.5929251], [122.0145678, 30.5930729], [122.0149836, 30.5931237], [122.0148709, 30.592939], [122.0148593, 30.5928825], [122.0150077, 30.5928259], [122.0150382, 30.5926553], [122.0149836, 30.5926065], [122.0149139, 30.5926619], [122.0148388, 30.5926157], [122.0147556, 30.5925904], [122.0144751, 30.5925208], [122.0143157, 30.5924195], [122.0142165, 30.5922337], [122.0142578, 30.5921146], [122.01379, 30.5918076], [122.013322, 30.5917002], [122.013275, 30.59184], [122.013208, 30.5919231], [122.0129666, 30.5919208], [122.0128351, 30.59199], [122.0127035, 30.592016], [122.0127493, 30.592117], [122.0128512, 30.5921678], [122.0128727, 30.5921967], [122.0127045, 30.5921595], [122.0127761, 30.5922544], [122.012874, 30.5923156], [122.0129545, 30.5923387], [122.0129639, 30.5922879], [122.0131195, 30.5923294], [122.0131436, 30.5923872], [122.0133689, 30.592438], [122.0135301, 30.5925697]]]}}]}